TWILIGHT F              
1 67368U 26004F   26024.86863083  .00006545  00000+0  73254-3 0  9991
2 67368  97.8022  25.8029 0006769 238.2418 121.8139 14.87207726  1989
TWILIGHT G              
1 67369U 26004G   26024.93526029  .00004612  00000+0  51778-3 0  9996
2 67369  97.7952  25.8679 0005857 253.3113 106.7460 14.87233620  1991
TWILIGHT H              
1 67370U 26004H   26024.86757824  .00005888  00000+0  65838-3 0  9997
2 67370  97.7951  25.8018 0005548 254.7044 105.3559 14.87288211  1983
TWILIGHT J              
1 67371U 26004J   26024.93195370  .00010303  00000+0  11366-2 0  9992
2 67371  97.7992  25.8729 0004637 236.6817 123.3956 14.87661273  1998
TWILIGHT K              
1 67372U 26004K   26024.92900204  .00004195  00000+0  46366-3 0  9993
2 67372  97.7970  25.8752 0002996 230.0841 130.0112 14.87933583  1997
TWILIGHT L              
1 67373U 26004L   26024.93251000  .00004483  00000+0  49978-3 0  9990
2 67373  97.7984  25.8718 0004610 242.1150 117.9599 14.87539489  1997
TWILIGHT M              
1 67374U 26004M   26024.92967304  .00005051  00000+0  55762-3 0  9991
2 67374  97.7969  25.8731 0003251 230.9899 129.1029 14.87882919  1993
TWILIGHT N              
1 67375U 26004N   26024.92943242  .00004927  00000+0  54374-3 0  9996
2 67375  97.8006  25.8778 0003813 224.4630 135.6281 14.87907903  1996
TWILIGHT P              
1 67376U 26004P   26024.93072769  .00004951  00000+0  54832-3 0  9991
2 67376  97.8003  25.8754 0004183 231.2182 128.8661 14.87759458  1993
TWILIGHT Q              
1 67377U 26004Q   26024.18958978 -.00034550  00000+0 -37953-2 0  9998
2 67377  97.8004  25.1505 0002936 239.2690 120.8238 14.87825869  1877
TWILIGHT R              
1 67378U 26004R   26024.93139448  .00005423  00000+0  60117-3 0  9999
2 67378  97.7977  25.8717 0003632 242.5553 117.5294 14.87682291  1984
TWILIGHT S              
1 67379U 26004S   26024.93128397  .00005210  00000+0  57761-3 0  9996
2 67379  97.7981  25.8732 0004135 237.7772 122.3043 14.87693402  1987
