CCSDS_OMM_VERS = 2.0
CREATION_DATE  = 
ORIGINATOR     = 

OBJECT_NAME    = TWILIGHT F
OBJECT_ID      = 2026-004F
CENTER_NAME    = EARTH
REF_FRAME      = TEME
TIME_SYSTEM    = UTC
MEAN_ELEMENT_THEORY = SGP/SGP4

EPOCH          = 2026-01-24T20:50:49.703712
MEAN_MOTION    = 14.87207726
ECCENTRICITY   = .00067698
INCLINATION    = 97.8022
RA_OF_ASC_NODE = 25.8029
ARG_OF_PERICENTER = 238.2418
MEAN_ANOMALY   = 121.8139

EPHEMERIS_TYPE = 0
CLASSIFICATION_TYPE = U
NORAD_CAT_ID   = 67368
ELEMENT_SET_NO = 999
REV_AT_EPOCH   = 198
BSTAR          = .73254171E-3
MEAN_MOTION_DOT = .6545E-4
MEAN_MOTION_DDOT = 0

CCSDS_OMM_VERS = 2.0
CREATION_DATE  = 
ORIGINATOR     = 

OBJECT_NAME    = TWILIGHT G
OBJECT_ID      = 2026-004G
CENTER_NAME    = EARTH
REF_FRAME      = TEME
TIME_SYSTEM    = UTC
MEAN_ELEMENT_THEORY = SGP/SGP4

EPOCH          = 2026-01-24T22:26:46.489056
MEAN_MOTION    = 14.87233620
ECCENTRICITY   = .00058578
INCLINATION    = 97.7952
RA_OF_ASC_NODE = 25.8679
ARG_OF_PERICENTER = 253.3113
MEAN_ANOMALY   = 106.7460

EPHEMERIS_TYPE = 0
CLASSIFICATION_TYPE = U
NORAD_CAT_ID   = 67369
ELEMENT_SET_NO = 999
REV_AT_EPOCH   = 199
BSTAR          = .51777943E-3
MEAN_MOTION_DOT = .4612E-4
MEAN_MOTION_DDOT = 0

CCSDS_OMM_VERS = 2.0
CREATION_DATE  = 
ORIGINATOR     = 

OBJECT_NAME    = TWILIGHT H
OBJECT_ID      = 2026-004H
CENTER_NAME    = EARTH
REF_FRAME      = TEME
TIME_SYSTEM    = UTC
MEAN_ELEMENT_THEORY = SGP/SGP4

EPOCH          = 2026-01-24T20:49:18.759936
MEAN_MOTION    = 14.87288211
ECCENTRICITY   = .00055483
INCLINATION    = 97.7951
RA_OF_ASC_NODE = 25.8018
ARG_OF_PERICENTER = 254.7044
MEAN_ANOMALY   = 105.3559

EPHEMERIS_TYPE = 0
CLASSIFICATION_TYPE = U
NORAD_CAT_ID   = 67370
ELEMENT_SET_NO = 999
REV_AT_EPOCH   = 198
BSTAR          = .65837623E-3
MEAN_MOTION_DOT = .5888E-4
MEAN_MOTION_DDOT = 0

CCSDS_OMM_VERS = 2.0
CREATION_DATE  = 
ORIGINATOR     = 

OBJECT_NAME    = TWILIGHT J
OBJECT_ID      = 2026-004J
CENTER_NAME    = EARTH
REF_FRAME      = TEME
TIME_SYSTEM    = UTC
MEAN_ELEMENT_THEORY = SGP/SGP4

EPOCH          = 2026-01-24T22:22:00.799680
MEAN_MOTION    = 14.87661273
ECCENTRICITY   = .00046376
INCLINATION    = 97.7992
RA_OF_ASC_NODE = 25.8729
ARG_OF_PERICENTER = 236.6817
MEAN_ANOMALY   = 123.3956

EPHEMERIS_TYPE = 0
CLASSIFICATION_TYPE = U
NORAD_CAT_ID   = 67371
ELEMENT_SET_NO = 999
REV_AT_EPOCH   = 199
BSTAR          = .11365855E-2
MEAN_MOTION_DOT = .10303E-3
MEAN_MOTION_DDOT = 0

CCSDS_OMM_VERS = 2.0
CREATION_DATE  = 
ORIGINATOR     = 

OBJECT_NAME    = TWILIGHT K
OBJECT_ID      = 2026-004K
CENTER_NAME    = EARTH
REF_FRAME      = TEME
TIME_SYSTEM    = UTC
MEAN_ELEMENT_THEORY = SGP/SGP4

EPOCH          = 2026-01-24T22:17:45.776256
MEAN_MOTION    = 14.87933583
ECCENTRICITY   = .00029961
INCLINATION    = 97.7970
RA_OF_ASC_NODE = 25.8752
ARG_OF_PERICENTER = 230.0841
MEAN_ANOMALY   = 130.0112

EPHEMERIS_TYPE = 0
CLASSIFICATION_TYPE = U
NORAD_CAT_ID   = 67372
ELEMENT_SET_NO = 999
REV_AT_EPOCH   = 199
BSTAR          = .46365777E-3
MEAN_MOTION_DOT = .4195E-4
MEAN_MOTION_DDOT = 0

CCSDS_OMM_VERS = 2.0
CREATION_DATE  = 
ORIGINATOR     = 

OBJECT_NAME    = TWILIGHT L
OBJECT_ID      = 2026-004L
CENTER_NAME    = EARTH
REF_FRAME      = TEME
TIME_SYSTEM    = UTC
MEAN_ELEMENT_THEORY = SGP/SGP4

EPOCH          = 2026-01-24T22:22:48.864000
MEAN_MOTION    = 14.87539489
ECCENTRICITY   = .00046104
INCLINATION    = 97.7984
RA_OF_ASC_NODE = 25.8718
ARG_OF_PERICENTER = 242.1150
MEAN_ANOMALY   = 117.9599

EPHEMERIS_TYPE = 0
CLASSIFICATION_TYPE = U
NORAD_CAT_ID   = 67373
ELEMENT_SET_NO = 999
REV_AT_EPOCH   = 199
BSTAR          = .49978493E-3
MEAN_MOTION_DOT = .4483E-4
MEAN_MOTION_DDOT = 0

CCSDS_OMM_VERS = 2.0
CREATION_DATE  = 
ORIGINATOR     = 

OBJECT_NAME    = TWILIGHT M
OBJECT_ID      = 2026-004M
CENTER_NAME    = EARTH
REF_FRAME      = TEME
TIME_SYSTEM    = UTC
MEAN_ELEMENT_THEORY = SGP/SGP4

EPOCH          = 2026-01-24T22:18:43.750656
MEAN_MOTION    = 14.87882919
ECCENTRICITY   = .00032517
INCLINATION    = 97.7969
RA_OF_ASC_NODE = 25.8731
ARG_OF_PERICENTER = 230.9899
MEAN_ANOMALY   = 129.1029

EPHEMERIS_TYPE = 0
CLASSIFICATION_TYPE = U
NORAD_CAT_ID   = 67374
ELEMENT_SET_NO = 999
REV_AT_EPOCH   = 199
BSTAR          = .55761676E-3
MEAN_MOTION_DOT = .5051E-4
MEAN_MOTION_DDOT = 0

CCSDS_OMM_VERS = 2.0
CREATION_DATE  = 
ORIGINATOR     = 

OBJECT_NAME    = TWILIGHT N
OBJECT_ID      = 2026-004N
CENTER_NAME    = EARTH
REF_FRAME      = TEME
TIME_SYSTEM    = UTC
MEAN_ELEMENT_THEORY = SGP/SGP4

EPOCH          = 2026-01-24T22:18:22.961088
MEAN_MOTION    = 14.87907903
ECCENTRICITY   = .00038137
INCLINATION    = 97.8006
RA_OF_ASC_NODE = 25.8778
ARG_OF_PERICENTER = 224.4630
MEAN_ANOMALY   = 135.6281

EPHEMERIS_TYPE = 0
CLASSIFICATION_TYPE = U
NORAD_CAT_ID   = 67375
ELEMENT_SET_NO = 999
REV_AT_EPOCH   = 199
BSTAR          = .5437402E-3
MEAN_MOTION_DOT = .4927E-4
MEAN_MOTION_DDOT = 0

CCSDS_OMM_VERS = 2.0
CREATION_DATE  = 
ORIGINATOR     = 

OBJECT_NAME    = TWILIGHT P
OBJECT_ID      = 2026-004P
CENTER_NAME    = EARTH
REF_FRAME      = TEME
TIME_SYSTEM    = UTC
MEAN_ELEMENT_THEORY = SGP/SGP4

EPOCH          = 2026-01-24T22:20:14.872416
MEAN_MOTION    = 14.87759458
ECCENTRICITY   = .00041834
INCLINATION    = 97.8003
RA_OF_ASC_NODE = 25.8754
ARG_OF_PERICENTER = 231.2182
MEAN_ANOMALY   = 128.8661

EPHEMERIS_TYPE = 0
CLASSIFICATION_TYPE = U
NORAD_CAT_ID   = 67376
ELEMENT_SET_NO = 999
REV_AT_EPOCH   = 199
BSTAR          = .54832093E-3
MEAN_MOTION_DOT = .4951E-4
MEAN_MOTION_DDOT = 0

CCSDS_OMM_VERS = 2.0
CREATION_DATE  = 
ORIGINATOR     = 

OBJECT_NAME    = TWILIGHT Q
OBJECT_ID      = 2026-004Q
CENTER_NAME    = EARTH
REF_FRAME      = TEME
TIME_SYSTEM    = UTC
MEAN_ELEMENT_THEORY = SGP/SGP4

EPOCH          = 2026-01-24T04:33:00.556992
MEAN_MOTION    = 14.87825869
ECCENTRICITY   = .00029363
INCLINATION    = 97.8004
RA_OF_ASC_NODE = 25.1505
ARG_OF_PERICENTER = 239.2690
MEAN_ANOMALY   = 120.8238

EPHEMERIS_TYPE = 0
CLASSIFICATION_TYPE = U
NORAD_CAT_ID   = 67377
ELEMENT_SET_NO = 999
REV_AT_EPOCH   = 187
BSTAR          = -.37952733E-2
MEAN_MOTION_DOT = -.3455E-3
MEAN_MOTION_DDOT = 0

CCSDS_OMM_VERS = 2.0
CREATION_DATE  = 
ORIGINATOR     = 

OBJECT_NAME    = TWILIGHT R
OBJECT_ID      = 2026-004R
CENTER_NAME    = EARTH
REF_FRAME      = TEME
TIME_SYSTEM    = UTC
MEAN_ELEMENT_THEORY = SGP/SGP4

EPOCH          = 2026-01-24T22:21:12.483072
MEAN_MOTION    = 14.87682291
ECCENTRICITY   = .00036328
INCLINATION    = 97.7977
RA_OF_ASC_NODE = 25.8717
ARG_OF_PERICENTER = 242.5553
MEAN_ANOMALY   = 117.5294

EPHEMERIS_TYPE = 0
CLASSIFICATION_TYPE = U
NORAD_CAT_ID   = 67378
ELEMENT_SET_NO = 999
REV_AT_EPOCH   = 198
BSTAR          = .60116929E-3
MEAN_MOTION_DOT = .5423E-4
MEAN_MOTION_DDOT = 0

CCSDS_OMM_VERS = 2.0
CREATION_DATE  = 
ORIGINATOR     = 

OBJECT_NAME    = TWILIGHT S
OBJECT_ID      = 2026-004S
CENTER_NAME    = EARTH
REF_FRAME      = TEME
TIME_SYSTEM    = UTC
MEAN_ELEMENT_THEORY = SGP/SGP4

EPOCH          = 2026-01-24T22:21:02.935008
MEAN_MOTION    = 14.87693402
ECCENTRICITY   = .00041355
INCLINATION    = 97.7981
RA_OF_ASC_NODE = 25.8732
ARG_OF_PERICENTER = 237.7772
MEAN_ANOMALY   = 122.3043

EPHEMERIS_TYPE = 0
CLASSIFICATION_TYPE = U
NORAD_CAT_ID   = 67379
ELEMENT_SET_NO = 999
REV_AT_EPOCH   = 198
BSTAR          = .57760937E-3
MEAN_MOTION_DOT = .521E-4
MEAN_MOTION_DDOT = 0

